$$SOE
2458320.034722222 = A.D. 2018-Jul-20 12:50:00.0000 TDB 
 X = 7.030192612795731E+07 Y =-1.227237021508852E+08 Z =-5.321970422737568E+07
 VX= 1.921882726229516E+01 VY= 1.301340044935503E+01 VZ= 1.880790561990885E+00
 LT= 5.040660621017704E+02 RG= 1.511152037518704E+08 RR=-2.289824022260284E+00
2458320.038194444 = A.D. 2018-Jul-20 12:55:00.0000 TDB 
 X = 7.030768529058780E+07 Y =-1.227201688309852E+08 Z =-5.321908914734115E+07
 VX= 1.929742344164310E+01 VY= 1.055626454022080E+01 VZ= 2.281266245566440E+00
 LT= 5.040647056121562E+02 RG= 1.511147970865147E+08 RR=-3.978187788148135E-01
2458320.041666667 = A.D. 2018-Jul-20 13:00:00.0000 TDB 
 X = 7.031357596253486E+07 Y =-1.227173467382309E+08 Z =-5.321830139036576E+07
 VX= 2.008733797541641E+01 VY= 8.314847736650005E+00 VZ= 3.021394681889603E+00
 LT= 5.040652779734862E+02 RG= 1.511149686761247E+08 RR= 1.530245620743502E+00
2458320.045138889 = A.D. 2018-Jul-20 13:05:00.0000 TDB 
 X = 7.031980040978959E+07 Y =-1.227151341517626E+08 Z =-5.321725029166915E+07
 VX= 2.150224853012475E+01 VY= 6.529499219337816E+00 VZ= 4.020880494874331E+00
 LT= 5.040677110245352E+02 RG= 1.511156980864791E+08 RR= 3.287449649223611E+00
2458320.048611111 = A.D. 2018-Jul-20 13:10:00.0000 TDB 
 X = 7.032652471112570E+07 Y =-1.227133641555361E+08 Z =-5.321587364606504E+07
 VX= 2.338952706684967E+01 VY= 5.390710644794086E+00 VZ= 5.172051356223665E+00
 LT= 5.040717374225213E+02 RG= 1.511169051702282E+08 RR= 4.686151311629444E+00
2458320.052083333 = A.D. 2018-Jul-20 13:15:00.0000 TDB 
 X = 7.033386123235115E+07 Y =-1.227118226857444E+08 Z =-5.321414422755495E+07
 VX= 2.554693984852766E+01 VY= 5.019648881118421E+00 VZ= 6.351470218036627E+00
 LT= 5.040769199777096E+02 RG= 1.511184588611869E+08 RR= 5.577456340443960E+00
2458320.055555556 = A.D. 2018-Jul-20 13:20:00.0000 TDB 
 X = 7.034185684511977E+07 Y =-1.227102713443816E+08 Z =-5.321207259724396E+07
 VX= 2.774390921651587E+01 VY= 5.456003858367643E+00 VZ= 7.432863312563415E+00
 LT= 5.040826984335926E+02 RG= 1.511201911986795E+08 RR= 5.866405457076363E+00
2458320.059027778 = A.D. 2018-Jul-20 13:25:00.0000 TDB 
 X = 7.035048796315931E+07 Y =-1.227084726677961E+08 Z =-5.320970597891057E+07
 VX= 2.974538794444976E+01 VY= 6.653857836337821E+00 VZ= 8.300234904704837E+00
 LT= 5.040884488375964E+02 RG= 1.511219151264303E+08 RR= 5.521798506632869E+00
2458320.062500000 = A.D. 2018-Jul-20 13:30:00.0000 TDB 
 X = 7.035966289341730E+07 Y =-1.227062153792924E+08 Z =-5.320712330540135E+07
 VX= 3.133641885370764E+01 VY= 8.485973356932321E+00 VZ= 8.860097712619211E+00
 LT= 5.040935497056680E+02 RG= 1.511234443282074E+08 RR= 4.579818068457708E+00
2458320.065972222 = A.D. 2018-Jul-20 13:35:00.0000 TDB 
 X = 7.036923138866447E+07 Y =-1.227033370787761E+08 Z =-5.320442687103979E+07
 VX= 3.234518761386464E+01 VY= 1.075655491699969E+01 VZ= 9.051657450435947E+00
 LT= 5.040974484251565E+02 RG= 1.511246131349059E+08 RR= 3.140802487386295E+00
2458320.069444444 = A.D. 2018-Jul-20 13:40:00.0000 TDB 
 X = 7.037900057496312E+07 Y =-1.226997419094793E+08 Z =-5.320173138995911E+07
 VX= 3.266202727454935E+01 VY= 1.322175923674122E+01 VZ= 8.853723492783457E+00
 LT= 5.040997209028233E+02 RG= 1.511252944065714E+08 RR= 1.359011224030948E+00
2458320.072916667 = A.D. 2018-Jul-20 13:45:00.0000 TDB 
 X = 7.038875565410854E+07 Y =-1.226954111344067E+08 Z =-5.319915160767767E+07
 VX= 3.225186216062485E+01 VY= 1.561602576247266E+01 VZ= 8.287316482124689E+00
 LT= 5.041001177386416E+02 RG= 1.511254133749568E+08 RR=-5.738575677940053E-01
2458320.076388889 = A.D. 2018-Jul-20 13:50:00.0000 TDB 
 X = 7.039828311691585E+07 Y =-1.226904053154127E+08 Z =-5.319678984484029E+07
 VX= 3.115829647516357E+01 VY= 1.768114570165308E+01 VZ= 7.413492124548991E+00
 LT= 5.040985915047643E+02 RG= 1.511249558215512E+08 RR=-2.449564576749654E+00
2458320.079861111 = A.D. 2018-Jul-20 13:55:00.0000 TDB 
 X = 7.040739384651794E+07 Y =-1.226848578118536E+08 Z =-5.319472488672315E+07
 VX= 2.949882283679309E+01 VY= 1.919445625982708E+01 VZ= 6.326641678190859E+00
 LT= 5.040953019637730E+02 RG= 1.511239696419717E+08 RR=-4.066051629784350E+00
2458320.083333333 = A.D. 2018-Jul-20 14:00:00.0000 TDB 
 X = 7.041594353750804E+07 Y =-1.226789603735582E+08 Z =-5.319300345379108E+07
 VX= 2.745194898984955E+01 VY= 1.999285840705936E+01 VZ= 5.144177530551045E+00
 LT= 5.040905987796506E+02 RG= 1.511225596628433E+08 RR=-5.249265557236058E+00
2458320.086805556 = A.D. 2018-Jul-20 14:05:00.0000 TDB 
 X = 7.042384824608143E+07 Y =-1.226729424719856E+08 Z =-5.319163515476980E+07
 VX= 2.523794483691770E+01 VY= 1.999022612213511E+01 VZ= 3.993861346056434E+00
 LT= 5.040849838321809E+02 RG= 1.511208763439398E+08 RR=-5.871767679557618E+00
2458320.090277778 = A.D. 2018-Jul-20 14:10:00.0000 TDB 
 X = 7.043109346675362E+07 Y =-1.226670466010920E+08 Z =-5.319059142828634E+07
 VX= 2.309530153819104E+01 VY= 1.918668429738333E+01 VZ= 3.000101627410160E+00
 LT= 5.040790572670485E+02 RG= 1.511190996044112E+08 RR=-5.866391063578063E+00
2458320.093750000 = A.D. 2018-Jul-20 14:15:00.0000 TDB 
 X = 7.043773578332548E+07 Y =-1.226615021289944E+08 Z =-5.318980858522187E+07
 VX= 2.125515056316362E+01 VY= 1.766889164064377E+01 VZ= 2.270528505997639E+00
 LT= 5.040734529075058E+02 RG= 1.511174194596884E+08 RR=-5.233659293825870E+00
2458320.097222222 = A.D. 2018-Jul-20 14:20:00.0000 TDB 
 X = 7.044389684644306E+07 Y =-1.226565004583567E+08 Z =-5.318919467001023E+07
 VX= 1.991612556545802E+01 VY= 1.560103153107430E+01 VZ= 1.884193025802869E+00
 LT= 5.040687697651142E+02 RG= 1.511160154889196E+08 RR=-4.042041102640184E+00
2458320.100694444 = A.D. 2018-Jul-20 14:25:00.0000 TDB 
 X = 7.044975022092824E+07 Y =-1.226521742289197E+08 Z =-5.318863944636630E+07
 VX= 1.922244952262555E+01 VY= 1.320705383340227E+01 VZ= 1.882770169327763E+00
 LT= 5.040655070684529E+02 RG= 1.511150373570679E+08 RR=-2.420666337488388E+00
2458320.104166667 = A.D. 2018-Jul-20 14:30:00.0000 TDB 
 X = 7.045550249474521E+07 Y =-1.226485829560244E+08 Z =-5.318802641664582E+07
 VX= 1.924803069949889E+01 VY= 1.074593852880359E+01 VZ= 2.265958359955146E+00
 LT= 5.040640101678151E+02 RG= 1.511145885975463E+08 RR=-5.450586339516419E-01
2458320.107638889 = A.D. 2018-Jul-20 14:35:00.0000 TDB 
 X = 7.046137079763262E+07 Y =-1.226457067714546E+08 Z =-5.318724549980102E+07
 VX= 1.998869334575511E+01 VY= 8.483007110834752E+00 VZ= 2.991730745456620E+00
 LT= 5.040644335500813E+02 RG= 1.511147155243565E+08 RR= 1.382422701766888E+00
2458320.111111111 = A.D. 2018-Jul-20 14:40:00.0000 TDB 
 X = 7.046755933327851E+07 Y =-1.226434489013745E+08 Z =-5.318620491202858E+07
 VX= 2.136338034569724E+01 VY= 6.660993333844332E+00 VZ= 3.981318034114437E+00
 LT= 5.040667250212864E+02 RG= 1.511154024901415E+08 RR= 3.154852992214476E+00
2458320.114583333 = A.D. 2018-Jul-20 14:45:00.0000 TDB 
 X = 7.047423755825087E+07 Y =-1.226416464143981E+08 Z =-5.318484094206051E+07
 VX= 2.322371806125126E+01 VY= 5.474355634155404E+00 VZ= 5.128081756245392E+00
 LT= 5.040706323512409E+02 RG= 1.511165738781928E+08 RR= 4.582909771486384E+00
2458320.118055556 = A.D. 2018-Jul-20 14:50:00.0000 TDB 
 X = 7.048152228728569E+07 Y =-1.226400878581078E+08 Z =-5.318312463356040E+07
 VX= 2.537030305986843E+01 VY= 5.049367320990033E+00 VZ= 6.309036080529508E+00
 LT= 5.040757310239019E+02 RG= 1.511181024218024E+08 RR= 5.514550958036465E+00
2458320.121527778 = A.D. 2018-Jul-20 14:55:00.0000 TDB 
 X = 7.048946544172186E+07 Y =-1.226385358077125E+08 Z =-5.318106477420270E+07
 VX= 2.757370114973459E+01 VY= 5.431441760115365E+00 VZ= 7.397741969000938E+00
 LT= 5.040814697063337E+02 RG= 1.511198228355143E+08 RR= 5.850533557303209E+00
2458320.125000000 = A.D. 2018-Jul-20 15:00:00.0000 TDB 
 X = 7.049804855894367E+07 Y =-1.226367520336313E+08 Z =-5.317870695498087E+07
 VX= 2.959820842448795E+01 VY= 6.580435488034202E+00 VZ= 8.277437802996712E+00
 LT= 5.040872286883955E+02 RG= 1.511215493349022E+08 RR= 5.554662878846072E+00
2458320.128472222 = A.D. 2018-Jul-20 15:05:00.0000 TDB 
 X = 7.050718460590702E+07 Y =-1.226345228263990E+08 Z =-5.317612878820570E+07
 VX= 3.122645446348928E+01 VY= 8.374351634321863E+00 VZ= 8.853336154605785E+00
 LT= 5.040923855805660E+02 RG= 1.511230953322816E+08 RR= 4.657915639428354E+00
2458320.131944444 = A.D. 2018-Jul-20 15:10:00.0000 TDB 
 X = 7.051672703293638E+07 Y =-1.226316819321976E+08 Z =-5.317343170331293E+07
 VX= 3.228267337201871E+01 VY= 1.062153793410165E+01 VZ= 9.062930853118154E+00
 LT= 5.040963817764569E+02 RG= 1.511242933616704E+08 RR= 3.255758943897429E+00
2458320.135416667 = A.D. 2018-Jul-20 15:15:00.0000 TDB 
 X = 7.052648529526158E+07 Y =-1.226281286234304E+08 Z =-5.317073010324927E+07
 VX= 3.265210810647106E+01 VY= 1.308072057530465E+01 VZ= 8.883085475347247E+00
 LT= 5.040987827088452E+02 RG= 1.511250131430926E+08 RR= 1.498454769539121E+00
2458320.138888889 = A.D. 2018-Jul-20 15:20:00.0000 TDB 
 X = 7.053624529362170E+07 Y =-1.226238387988896E+08 Z =-5.316813901434447E+07
 VX= 3.229400665101662E+01 VY= 1.548702437022294E+01 VZ= 8.332857260477937E+00
 LT= 5.040993251366626E+02 RG= 1.511251757588612E+08 RR=-4.249650535592485E-01
2458320.142361111 = A.D. 2018-Jul-20 15:25:00.0000 TDB 
 X = 7.054579250583474E+07 Y =-1.226188677469767E+08 Z =-5.316576160160792E+07
 VX= 3.124634452015066E+01 VY= 1.758095579274543E+01 VZ= 7.471544256999747E+00
 LT= 5.040979459231646E+02 RG= 1.511247622810566E+08 RR=-2.307292938841839E+00
2458320.145833333 = A.D. 2018-Jul-20 15:30:00.0000 TDB 
 X = 7.055493519933313E+07 Y =-1.226133442186180E+08 Z =-5.316367796611426E+07
 VX= 2.962165690334196E+01 VY= 1.913674688998414E+01 VZ= 6.392181609491162E+00
 LT= 5.040947889609771E+02 RG= 1.511238158476026E+08 RR=-3.945760180667031E+00
2458320.149305556 = A.D. 2018-Jul-20 15:35:00.0000 TDB 
 X = 7.056352513468777E+07 Y =-1.226074565181764E+08 Z =-5.316193647200356E+07
 VX= 2.759469813290893E+01 VY= 1.998672320788289E+01 VZ= 5.211370758275292E+00
 LT= 5.040901895975429E+02 RG= 1.511224369931334E+08 RR=-5.163949828208726E+00
$$EOE
